BEIDOU-2 IGSO-1 (C06)   
1 36828U 10036A   24093.46433258 -.00000126  00000+0  00000+0 0  9998
2 36828  54.2447 170.2561 0040031 198.3904  94.6242  1.00248666 50127
BEIDOU-2 G4 (C04)       
1 37210U 10057A   24093.60821562 -.00000113  00000+0  00000+0 0  9998
2 37210   1.6636  67.5519 0004300 207.7545 295.0256  1.00273174 49217
BEIDOU-2 IGSO-2 (C07)   
1 37256U 10068A   24093.44800749 -.00000167  00000+0  00000+0 0  9995
2 37256  49.0197 281.7377 0032059 209.5969 329.5171  1.00274200 48713
BEIDOU-2 IGSO-3 (C08)   
1 37384U 11013A   24092.62225844 -.00000166  00000+0  00000+0 0  9993
2 37384  61.2471  47.8501 0026159 182.1357 293.4046  1.00277799 47587
BEIDOU-2 IGSO-4 (C09)   
1 37763U 11038A   24091.97837757 -.00000063  00000+0  00000+0 0  9996
2 37763  54.5514 172.8607 0122275 227.8964 237.5301  1.00275300 46548
BEIDOU-2 IGSO-5 (C10)   
1 37948U 11073A   24091.99007753 -.00000116  00000+0  00000+0 0  9996
2 37948  49.1534 281.4374 0094212 219.4666 140.4902  1.00268666 45048
BEIDOU-2 G5 (C05)       
1 38091U 12008A   24093.58125946  .00000057  00000+0  00000+0 0  9990
2 38091   1.8911  70.1325 0009716 260.0431 129.1527  1.00270408 44298
BEIDOU-2 M3 (C11)       
1 38250U 12018A   24092.14820396 -.00000055  00000+0  00000+0 0  9999
2 38250  56.3870 331.9044 0021425 267.9500  91.8540  1.86231255 80914
BEIDOU-2 M4 (C12)       
1 38251U 12018B   24092.07873451 -.00000054  00000+0  00000+0 0  9991
2 38251  56.2950 331.1841 0012429 274.4744  85.4329  1.86232020 80912
BEIDOU-2 M6 (C14)       
1 38775U 12050B   24093.39904677  .00000054  00000+0  00000+0 0  9998
2 38775  55.8547  89.6946 0014672 329.4888  30.4471  1.86231056 78309
BEIDOU-2 G6 (C02)       
1 38953U 12059A   24093.58630677 -.00000175  00000+0  00000+0 0  9997
2 38953   2.3656  80.9650 0011135 305.3792 100.1741  1.00269831 41830
BEIDOU-3S IGSO-1S (C31) 
1 40549U 15019A   24093.49627931 -.00000141  00000+0  00000+0 0  9992
2 40549  50.7124 305.0807 0035750 191.9262 328.0338  1.00265353 32991
BEIDOU-3S M2S (C58)     
1 40748U 15037A   24092.27965090 -.00000052  00000+0  00000+0 0  9990
2 40748  55.5293 329.6462 0008408 264.6797  95.2729  1.86233025 59094
BEIDOU-3S M1S (C57)     
1 40749U 15037B   24090.93910693 -.00000056  00000+0  00000+0 0  9995
2 40749  55.5331 329.6786 0006018 352.3319   7.7085  1.86232996 59063
BEIDOU-3S IGSO-2S (C56) 
1 40938U 15053A   24093.44557087 -.00000105  00000+0  00000+0 0  9991
2 40938  50.4791 268.2841 0049403 187.6819 352.0690  1.00279804 31272
BEIDOU-2 IGSO-6 (C13)   
1 41434U 16021A   24092.83452324 -.00000140  00000+0  00000+0 0  9998
2 41434  59.0708  46.1211 0049573 225.2217 315.0372  1.00285229 29394
BEIDOU-2 G7 (C03)       
1 41586U 16037A   24093.56076385 -.00000354  00000+0  00000+0 0  9990
2 41586   1.7240  68.5819 0009198 322.6526 112.4344  1.00278099 28713
BEIDOU-3 M1 (C19)       
1 43001U 17069A   24089.94344420  .00000033  00000+0  00000+0 0  9998
2 43001  56.0020  89.8967 0012598 298.7446  61.1467  1.86231445 43539
BEIDOU-3 M2 (C20)       
1 43002U 17069B   24093.10223824  .00000053  00000+0  00000+0 0  9998
2 43002  56.0043  89.8271 0010181 317.3828  42.5590  1.86231014 43588
BEIDOU-3 M7 (C27)       
1 43107U 18003A   24092.85201183 -.00000053  00000+0  00000+0 0  9999
2 43107  54.9864 330.2510 0005001  58.8887 301.2084  1.86232344 42330
BEIDOU-3 M8 (C28)       
1 43108U 18003B   24093.32877245 -.00000052  00000+0  00000+0 0  9990
2 43108  54.9790 330.2206 0002891 281.5720  78.4437  1.86230820 42350
BEIDOU-3 M4 (C22)       
1 43207U 18018A   24092.15931303  .00000047  00000+0  00000+0 0  9995
2 43207  55.9626  89.9149 0007077 334.1602  25.8237  1.86231267 41717
BEIDOU-3 M3 (C21)       
1 43208U 18018B   24092.22587971  .00000047  00000+0  00000+0 0  9992
2 43208  55.9621  89.9170 0010237 307.6218  52.3046  1.86231287 41712
BEIDOU-3 M9 (C29)       
1 43245U 18029A   24092.98471396 -.00000048  00000+0  00000+0 0  9993
2 43245  54.8730 327.9620 0001059   5.7088 354.3403  1.86232448 40889
BEIDOU-3 M10 (C30)      
1 43246U 18029B   24092.91449615 -.00000049  00000+0  00000+0 0  9997
2 43246  54.8699 327.9919 0004935  12.3366 347.7235  1.86232725 40869
BEIDOU-2 IGSO-7 (C16)   
1 43539U 18057A   24093.46220064 -.00000142  00000+0  00000+0 0  9993
2 43539  55.1340 170.0303 0073043 232.1880  68.5704  1.00275930 21054
BEIDOU-3 M5 (C23)       
1 43581U 18062A   24092.59934500  .00000015  00000+0  00000+0 0  9994
2 43581  54.1428 209.7429 0002303 283.9019  76.0648  1.86228567 38614
BEIDOU-3 M6 (C24)       
1 43582U 18062B   24093.00249135  .00000011  00000+0  00000+0 0  9991
2 43582  54.1423 209.7186 0005139  31.9629 328.0594  1.86229335 38623
BEIDOU-3 M12 (C26)      
1 43602U 18067A   24092.93670164  .00000011  00000+0  00000+0 0  9990
2 43602  54.2320 208.3951 0007249  27.8416 332.1904  1.86231621 38105
BEIDOU-3 M11 (C25)      
1 43603U 18067B   24092.53365025  .00000015  00000+0  00000+0 0  9998
2 43603  54.2293 208.3740 0004013  20.9944 339.0165  1.86231504 38124
BEIDOU-3 M13 (C32)      
1 43622U 18072A   24091.95708611  .00000045  00000+0  00000+0 0  9995
2 43622  55.9335  89.4546 0009121 296.9117  63.0133  1.86231315 37627
BEIDOU-3 M14 (C33)      
1 43623U 18072B   24093.43340207  .00000054  00000+0  00000+0 0  9994
2 43623  55.9364  89.3983 0006705 315.2170  44.7498  1.86231301 37640
BEIDOU-3 M16 (C35)      
1 43647U 18078A   24093.05960416 -.00000049  00000+0  00000+0 0  9999
2 43647  54.7687 328.0637 0008231  17.3236 342.7524  1.86232215 37140
BEIDOU-3 M15 (C34)      
1 43648U 18078B   24093.18877294 -.00000048  00000+0  00000+0 0  9994
2 43648  54.7645 328.0624 0005307  26.1741 333.9007  1.86232112 37167
BEIDOU-3 G1 (C59)       
1 43683U 18085A   24093.59744566 -.00000280  00000+0  00000+0 0  9999
2 43683   2.0055 112.6867 0003297 326.4658 107.2617  1.00266898 19985
BEIDOU-3 M17 (C36)      
1 43706U 18093A   24092.80096397  .00000013  00000+0  00000+0 0  9992
2 43706  54.2255 209.6688 0007574 283.1863  76.7212  1.86228205 36523
BEIDOU-3 M18 (C37)      
1 43707U 18093B   24092.66690347  .00000014  00000+0  00000+0 0  9993
2 43707  54.2263 209.6651 0006110 318.5759  41.3700  1.86229666 36516
BEIDOU-3 IGSO-1 (C38)   
1 44204U 19023A   24093.47323882 -.00000199  00000+0  00000+0 0  9992
2 44204  57.5352  46.0166 0019922 215.4424 219.7397  1.00271629 18264
BEIDOU-2 G8 (C01)       
1 44231U 19027A   24093.54569831 -.00000249  00000+0  00000+0 0  9996
2 44231   1.7602  73.3375 0002402 172.6189 286.3338  1.00267561 18002
BEIDOU-3 IGSO-2 (C39)   
1 44337U 19035A   24093.59344262 -.00000142  00000+0  00000+0 0  9998
2 44337  55.1676 165.9319 0032776 206.4217 152.0075  1.00264485 17585
BEIDOU-3 M24 (C46)      
1 44542U 19061A   24092.73700720  .00000014  00000+0  00000+0 0  9992
2 44542  54.4531 209.9419 0007441   2.3755 357.6197  1.86231073 30771
BEIDOU-3 M23 (C45)      
1 44543U 19061B   24093.40327484  .00000007  00000+0  00000+0 0  9992
2 44543  54.4515 209.8886 0004261 351.6436   7.2150  1.86231462 30784
BEIDOU-3 IGSO-3 (C40)   
1 44709U 19073A   24092.94172085 -.00000144  00000+0  00000+0 0  9995
2 44709  56.1785 289.5263 0036327 179.4414 180.5643  1.00272805 16373
BEIDOU-3 M22 (C44)      
1 44793U 19078A   24093.11982683 -.00000049  00000+0  00000+0 0  9990
2 44793  54.6167 328.0030 0007232  23.7273 336.3538  1.86232005 29630
BEIDOU-3 M21 (C43)      
1 44794U 19078B   24091.10202182 -.00000054  00000+0  00000+0 0  9993
2 44794  54.5918 328.0508 0005072  18.7927 341.2742  1.86232565 29604
BEIDOU-3 M19 (C41)      
1 44864U 19090A   24093.11580480  .00000052  00000+0  00000+0 0  9995
2 44864  55.8683  89.5917 0020012 281.2516 182.1004  1.86231552 29226
BEIDOU-3 M20 (C42)      
1 44865U 19090B   24092.35534365  .00000047  00000+0  00000+0 0  9996
2 44865  55.8693  89.6503 0017825 292.7690 110.4845  1.86231535 29192
BEIDOU-3 G2 (C60)       
1 45344U 20017A   24093.58552358 -.00000142  00000+0  00000+0 0  9995
2 45344   2.2281  26.4742 0001265 325.9638 129.8124  1.00272240 15182
BEIDOU-3 G3 (C61)       
1 45807U 20040A   24093.63660269 -.00000355  00000+0  00000+0 0  9998
2 45807   0.6646  30.6596 0006857 302.9095 197.6257  1.00270035 13998
BEIDOU-3 G4             
1 56564U 23066A   24093.60865757 -.00000115  00000+0  00000+0 0  9991
2 56564   2.3142 288.2077 0003681 188.5658  93.7780  1.00272666  3314
BEIDOU-3 M25            
1 58654U 23207A   24093.33248576  .00000051  00000+0  00000+0 0  9992
2 58654  55.0507  89.6527 0005096 287.2549  72.7106  1.86232141  1839
BEIDOU-3 M26            
1 58655U 23207B   24093.13128588  .00000050  00000+0  00000+0 0  9990
2 58655  55.0525  89.6449 0005768 273.3203  86.6347  1.86231719  1811
